KUIPER-00071            
1 64818U 25151C   25338.43879706  .00012871  00000+0  17100-2 0  9995
2 64818  51.9012   4.2740 0007045 271.8545  88.1610 14.80021472 21165
KUIPER-00072            
1 64819U 25151D   25338.43804650  .00007859  00000+0  11092-2 0  9996
2 64819  51.8996 343.7093 0002402 272.3519  87.7167 14.77947907 21457
KUIPER-00073            
1 64820U 25151E   25338.75002315 -.00033119  00000+0 -43238-2 0  9998
2 64820  51.9007   2.8936 0013071 301.6045  97.9460 14.79988878  5451
KUIPER-00074            
1 64821U 25151F   25338.41863586  .00000052  00000+0  36268-4 0  9992
2 64821  51.9021 351.8741 0013444 316.7003  43.2902 14.79946217 21335
KUIPER-00075            
1 64822U 25151G   25338.27123590  .00083142  00000+0  20263-2 0  9998
2 64822  51.8753 325.2267 0003718 306.3331  53.7313 15.40174950 21694
KUIPER-00076            
1 64823U 25151H   25338.41590436  .00006888  00000+0  93221-3 0  9999
2 64823  51.9015 354.3822 0004573 308.4372  51.6180 14.79903798 21303
KUIPER-00077            
1 64824U 25151J   25338.27552147  .00011487  00000+0  15340-2 0  9997
2 64824  51.9025   0.0091 0005993 267.7901  92.2375 14.79902038 21213
KUIPER-00078            
1 64825U 25151K   25338.44699374  .00012657  00000+0  16864-2 0  9993
2 64825  51.9010 356.7453 0008305 331.5407  28.5101 14.79910501 21271
